CCSDS_OMM_VERS = 2.0
CREATION_DATE  = 
ORIGINATOR     = 

OBJECT_NAME    = IDEFIX & ARIANE 42P R/B
OBJECT_ID      = 2002-021B
CENTER_NAME    = EARTH
REF_FRAME      = TEME
TIME_SYSTEM    = UTC
MEAN_ELEMENT_THEORY = SGP/SGP4

EPOCH          = 2025-12-06T06:57:45.190368
MEAN_MOTION    = 14.30943166
ECCENTRICITY   = .00128907
INCLINATION    = 98.5777
RA_OF_ASC_NODE = 275.0650
ARG_OF_PERICENTER = 100.9975
MEAN_ANOMALY   = 259.2659

EPHEMERIS_TYPE = 0
CLASSIFICATION_TYPE = U
NORAD_CAT_ID   = 27422
ELEMENT_SET_NO = 999
REV_AT_EPOCH   = 23066
BSTAR          = .26053751E-3
MEAN_MOTION_DOT = .642E-5
MEAN_MOTION_DDOT = 0

CCSDS_OMM_VERS = 2.0
CREATION_DATE  = 
ORIGINATOR     = 

OBJECT_NAME    = AQUA
OBJECT_ID      = 2002-022A
CENTER_NAME    = EARTH
REF_FRAME      = TEME
TIME_SYSTEM    = UTC
MEAN_ELEMENT_THEORY = SGP/SGP4

EPOCH          = 2025-12-06T04:15:07.781760
MEAN_MOTION    = 14.61784704
ECCENTRICITY   = .00008907
INCLINATION    = 98.4028
RA_OF_ASC_NODE = 300.9497
ARG_OF_PERICENTER = 112.7706
MEAN_ANOMALY   = 257.9940

EPHEMERIS_TYPE = 0
CLASSIFICATION_TYPE = U
NORAD_CAT_ID   = 27424
ELEMENT_SET_NO = 999
REV_AT_EPOCH   = 25507
BSTAR          = .45681556E-3
MEAN_MOTION_DOT = .2231E-4
MEAN_MOTION_DDOT = 0

CCSDS_OMM_VERS = 2.0
CREATION_DATE  = 
ORIGINATOR     = 

OBJECT_NAME    = CZ-4B R/B
OBJECT_ID      = 2002-024C
CENTER_NAME    = EARTH
REF_FRAME      = TEME
TIME_SYSTEM    = UTC
MEAN_ELEMENT_THEORY = SGP/SGP4

EPOCH          = 2025-12-05T23:57:26.981280
MEAN_MOTION    = 14.14525563
ECCENTRICITY   = .00491881
INCLINATION    = 98.9009
RA_OF_ASC_NODE = 28.7932
ARG_OF_PERICENTER = 289.4394
MEAN_ANOMALY   = 140.3000

EPHEMERIS_TYPE = 0
CLASSIFICATION_TYPE = U
NORAD_CAT_ID   = 27432
ELEMENT_SET_NO = 999
REV_AT_EPOCH   = 21599
BSTAR          = .89942585E-4
MEAN_MOTION_DOT = .129E-5
MEAN_MOTION_DDOT = 0

CCSDS_OMM_VERS = 2.0
CREATION_DATE  = 
ORIGINATOR     = 

OBJECT_NAME    = MIDORI II (ADEOS-II)
OBJECT_ID      = 2002-056A
CENTER_NAME    = EARTH
REF_FRAME      = TEME
TIME_SYSTEM    = UTC
MEAN_ELEMENT_THEORY = SGP/SGP4

EPOCH          = 2025-12-06T03:13:47.857152
MEAN_MOTION    = 14.29198700
ECCENTRICITY   = .00001912
INCLINATION    = 98.7626
RA_OF_ASC_NODE = 293.0566
ARG_OF_PERICENTER = 9.7826
MEAN_ANOMALY   = 350.3359

EPHEMERIS_TYPE = 0
CLASSIFICATION_TYPE = U
NORAD_CAT_ID   = 27597
ELEMENT_SET_NO = 999
REV_AT_EPOCH   = 19693
BSTAR          = .22403845E-3
MEAN_MOTION_DOT = .524E-5
MEAN_MOTION_DDOT = 0

CCSDS_OMM_VERS = 2.0
CREATION_DATE  = 
ORIGINATOR     = 

OBJECT_NAME    = H-2A R/B
OBJECT_ID      = 2002-056E
CENTER_NAME    = EARTH
REF_FRAME      = TEME
TIME_SYSTEM    = UTC
MEAN_ELEMENT_THEORY = SGP/SGP4

EPOCH          = 2025-12-06T04:19:49.471680
MEAN_MOTION    = 14.33667799
ECCENTRICITY   = .00714897
INCLINATION    = 98.3054
RA_OF_ASC_NODE = 299.1988
ARG_OF_PERICENTER = 80.3782
MEAN_ANOMALY   = 291.0102

EPHEMERIS_TYPE = 0
CLASSIFICATION_TYPE = U
NORAD_CAT_ID   = 27601
ELEMENT_SET_NO = 999
REV_AT_EPOCH   = 20071
BSTAR          = .22786064E-3
MEAN_MOTION_DOT = .609E-5
MEAN_MOTION_DDOT = 0

CCSDS_OMM_VERS = 2.0
CREATION_DATE  = 
ORIGINATOR     = 

OBJECT_NAME    = CZ-4B R/B
OBJECT_ID      = 2003-049C
CENTER_NAME    = EARTH
REF_FRAME      = TEME
TIME_SYSTEM    = UTC
MEAN_ELEMENT_THEORY = SGP/SGP4

EPOCH          = 2025-12-06T04:47:33.873504
MEAN_MOTION    = 14.54900040
ECCENTRICITY   = .00486722
INCLINATION    = 98.6782
RA_OF_ASC_NODE = 326.5168
ARG_OF_PERICENTER = 155.8190
MEAN_ANOMALY   = 204.5306

EPHEMERIS_TYPE = 0
CLASSIFICATION_TYPE = U
NORAD_CAT_ID   = 28059
ELEMENT_SET_NO = 999
REV_AT_EPOCH   = 17300
BSTAR          = .17141018E-3
MEAN_MOTION_DOT = .697E-5
MEAN_MOTION_DDOT = 0

CCSDS_OMM_VERS = 2.0
CREATION_DATE  = 
ORIGINATOR     = 

OBJECT_NAME    = CZ-2C R/B
OBJECT_ID      = 2004-012C
CENTER_NAME    = EARTH
REF_FRAME      = TEME
TIME_SYSTEM    = UTC
MEAN_ELEMENT_THEORY = SGP/SGP4

EPOCH          = 2025-12-06T07:19:32.675520
MEAN_MOTION    = 15.54886020
ECCENTRICITY   = .00167643
INCLINATION    = 97.7430
RA_OF_ASC_NODE = 32.3981
ARG_OF_PERICENTER = 295.6410
MEAN_ANOMALY   = 64.3111

EPHEMERIS_TYPE = 0
CLASSIFICATION_TYPE = U
NORAD_CAT_ID   = 28222
ELEMENT_SET_NO = 999
REV_AT_EPOCH   = 18972
BSTAR          = .81429678E-3
MEAN_MOTION_DOT = .54879E-3
MEAN_MOTION_DDOT = 0

CCSDS_OMM_VERS = 2.0
CREATION_DATE  = 
ORIGINATOR     = 

OBJECT_NAME    = SL-16 R/B
OBJECT_ID      = 2004-021B
CENTER_NAME    = EARTH
REF_FRAME      = TEME
TIME_SYSTEM    = UTC
MEAN_ELEMENT_THEORY = SGP/SGP4

EPOCH          = 2025-12-06T06:10:31.926144
MEAN_MOTION    = 14.14582342
ECCENTRICITY   = .00056471
INCLINATION    = 71.0022
RA_OF_ASC_NODE = 68.5683
ARG_OF_PERICENTER = 209.5359
MEAN_ANOMALY   = 150.5445

EPHEMERIS_TYPE = 0
CLASSIFICATION_TYPE = U
NORAD_CAT_ID   = 28353
ELEMENT_SET_NO = 999
REV_AT_EPOCH   = 10962
BSTAR          = -.38495322E-4
MEAN_MOTION_DOT = -.122E-5
MEAN_MOTION_DDOT = 0

CCSDS_OMM_VERS = 2.0
CREATION_DATE  = 
ORIGINATOR     = 

OBJECT_NAME    = CZ-4B R/B
OBJECT_ID      = 2004-035C
CENTER_NAME    = EARTH
REF_FRAME      = TEME
TIME_SYSTEM    = UTC
MEAN_ELEMENT_THEORY = SGP/SGP4

EPOCH          = 2025-12-06T08:05:34.802304
MEAN_MOTION    = 15.27216476
ECCENTRICITY   = .00319474
INCLINATION    = 97.3609
RA_OF_ASC_NODE = 10.7673
ARG_OF_PERICENTER = 301.3605
MEAN_ANOMALY   = 58.4509

EPHEMERIS_TYPE = 0
CLASSIFICATION_TYPE = U
NORAD_CAT_ID   = 28415
ELEMENT_SET_NO = 999
REV_AT_EPOCH   = 16565
BSTAR          = .47899315E-3
MEAN_MOTION_DOT = .12902E-3
MEAN_MOTION_DDOT = 0

CCSDS_OMM_VERS = 2.0
CREATION_DATE  = 
ORIGINATOR     = 

OBJECT_NAME    = CZ-2C R/B
OBJECT_ID      = 2004-046B
CENTER_NAME    = EARTH
REF_FRAME      = TEME
TIME_SYSTEM    = UTC
MEAN_ELEMENT_THEORY = SGP/SGP4

EPOCH          = 2025-12-06T05:27:31.419072
MEAN_MOTION    = 14.26936042
ECCENTRICITY   = .01406498
INCLINATION    = 98.1984
RA_OF_ASC_NODE = 256.0103
ARG_OF_PERICENTER = 71.4090
MEAN_ANOMALY   = 290.2309

EPHEMERIS_TYPE = 0
CLASSIFICATION_TYPE = U
NORAD_CAT_ID   = 28480
ELEMENT_SET_NO = 999
REV_AT_EPOCH   = 9517
BSTAR          = .14479338E-3
MEAN_MOTION_DOT = .351E-5
MEAN_MOTION_DDOT = 0

CCSDS_OMM_VERS = 2.0
CREATION_DATE  = 
ORIGINATOR     = 

OBJECT_NAME    = ARIANE 5 R/B
OBJECT_ID      = 2004-049H
CENTER_NAME    = EARTH
REF_FRAME      = TEME
TIME_SYSTEM    = UTC
MEAN_ELEMENT_THEORY = SGP/SGP4

EPOCH          = 2025-12-06T04:24:58.735296
MEAN_MOTION    = 14.84988197
ECCENTRICITY   = .00834539
INCLINATION    = 98.2520
RA_OF_ASC_NODE = 140.2303
ARG_OF_PERICENTER = 294.4984
MEAN_ANOMALY   = 64.7545

EPHEMERIS_TYPE = 0
CLASSIFICATION_TYPE = U
NORAD_CAT_ID   = 28499
ELEMENT_SET_NO = 999
REV_AT_EPOCH   = 13191
BSTAR          = .2091536E-3
MEAN_MOTION_DOT = .1832E-4
MEAN_MOTION_DDOT = 0

CCSDS_OMM_VERS = 2.0
CREATION_DATE  = 
ORIGINATOR     = 

OBJECT_NAME    = CZ-2D R/B
OBJECT_ID      = 2005-024B
CENTER_NAME    = EARTH
REF_FRAME      = TEME
TIME_SYSTEM    = UTC
MEAN_ELEMENT_THEORY = SGP/SGP4

EPOCH          = 2025-12-06T06:40:43.328928
MEAN_MOTION    = 15.52700324
ECCENTRICITY   = .00065041
INCLINATION    = 97.3628
RA_OF_ASC_NODE = 347.5581
ARG_OF_PERICENTER = 28.0239
MEAN_ANOMALY   = 332.1363

EPHEMERIS_TYPE = 0
CLASSIFICATION_TYPE = U
NORAD_CAT_ID   = 28738
ELEMENT_SET_NO = 999
REV_AT_EPOCH   = 12525
BSTAR          = .59026243E-3
MEAN_MOTION_DOT = .36454E-3
MEAN_MOTION_DDOT = 0

