IDEFIX & ARIANE 42P R/B 
1 27422U 02021B   25340.29010637  .00000642  00000+0  26054-3 0  9995
2 27422  98.5777 275.0650 0012890 100.9975 259.2659 14.30943166230660
AQUA                    
1 27424U 02022A   25340.17717340  .00002231  00000+0  45682-3 0  9994
2 27424  98.4028 300.9497 0000890 112.7706 257.9940 14.61784704255072
CZ-4B R/B               
1 27432U 02024C   25339.99822895  .00000129  00000+0  89943-4 0  9998
2 27432  98.9009  28.7932 0049188 289.4394 140.3000 14.14525563215995
MIDORI II (ADEOS-II)    
1 27597U 02056A   25340.13458168  .00000524  00000+0  22404-3 0  9998
2 27597  98.7626 293.0566 0000191   9.7826 350.3359 14.29198700196931
H-2A R/B                
1 27601U 02056E   25340.18043370  .00000609  00000+0  22786-3 0  9991
2 27601  98.3054 299.1988 0071489  80.3782 291.0102 14.33667799200710
CZ-4B R/B               
1 28059U 03049C   25340.19969761  .00000697  00000+0  17141-3 0  9990
2 28059  98.6782 326.5168 0048672 155.8190 204.5306 14.54900040173001
CZ-2C R/B               
1 28222U 04012C   25340.30523930  .00054879  00000+0  81430-3 0  9993
2 28222  97.7430  32.3981 0016764 295.6410  64.3111 15.54886020189727
SL-16 R/B               
1 28353U 04021B   25340.25731396 -.00000122  00000+0 -38495-4 0  9997
2 28353  71.0022  68.5683 0005647 209.5359 150.5445 14.14582342109622
CZ-4B R/B               
1 28415U 04035C   25340.33720836  .00012902  00000+0  47899-3 0  9991
2 28415  97.3609  10.7673 0031947 301.3605  58.4509 15.27216476165657
CZ-2C R/B               
1 28480U 04046B   25340.22744698  .00000351  00000+0  14479-3 0  9998
2 28480  98.1984 256.0103 0140649  71.4090 290.2309 14.26936042 95179
ARIANE 5 R/B            
1 28499U 04049H   25340.18401314  .00001832  00000+0  20915-3 0  9998
2 28499  98.2520 140.2303 0083453 294.4984  64.7545 14.84988197131911
CZ-2D R/B               
1 28738U 05024B   25340.27827927  .00036454  00000+0  59026-3 0  9993
2 28738  97.3628 347.5581 0006504  28.0239 332.1363 15.52700324125252
